<?xml version='1.0' encoding='utf-8'?>
<kml xmlns="http://www.opengis.net/kml/2.2"><Document><name>烏溪流域探索成果 (Wuxi Exploration)</name><Folder><name>流域範圍 (Basin Boundary)</name></Folder><Folder><name>河道線段 (River Channel)</name></Folder><Folder><name>探索景點 (Points of Interest)</name><Placemark><name>草屯大觀市場</name><description>542, Taiwan, Nantou County, Caotun Township, Zhongshan St, 403號409</description><Point><coordinates>120.6834868,23.9829409,0</coordinates></Point></Placemark><Placemark><name>草屯老街</name><description>No. 35號, Heping St, Caotun Township, Nantou County, Taiwan 542</description><Point><coordinates>120.6833959,23.9789974,0</coordinates></Point></Placemark><Placemark><name>國姓鄉北港溪糯米石橋</name><description>Guoxing Rd, Guoxing Township, Nantou County, Taiwan 544</description><Point><coordinates>120.9065125,24.0585088,0</coordinates></Point></Placemark><Placemark><name>草屯敦和宮</name><description>No. 74號, Dunhe Rd, Caotun Township, Nantou County, Taiwan 542</description><Point><coordinates>120.6800241,23.9803924,0</coordinates></Point></Placemark><Placemark><name>霧峰健體中心</name><description>413015, Taiwan, Taichung City, Wufeng District, Chenggong Rd, 200號對面</description><Point><coordinates>120.7009951,24.0604701,0</coordinates></Point></Placemark><Placemark><name>經濟部水利署水利規劃分署 展覽館</name><description>Taiwan, 烏溪</description><Point><coordinates>120.5537934542444,24.14911788289869,0</coordinates></Point></Placemark><Placemark><name>鳥嘴潭人工湖</name><description>Beishi Village, Caotun Township, Nantou County, Taiwan 542</description><Point><coordinates>120.7423954,23.9961375,0</coordinates></Point></Placemark><Placemark><name>九九峰氦氣園區</name><description>Taiwan, 烏溪</description><Point><coordinates>120.5537934542444,24.14911788289869,0</coordinates></Point></Placemark><Placemark><name>惠蓀林場</name><description>Huisun Forest Area, No. 1號山林巷 Ren’ai Township, Nantou County, Taiwan 546</description><Point><coordinates>121.033728,24.091197,0</coordinates></Point></Placemark><Placemark><name>國姓茄苳樹公 北圳</name><description>No. 84-1號, Zhangbei Rd, Guoxing Township, Nantou County, Taiwan 544</description><Point><coordinates>120.8879076,24.0640467,0</coordinates></Point></Placemark><Placemark><name>國姓兩溪匯流處</name><description>Guoxing, Guoxing Township, Nantou County, Taiwan 544</description><Point><coordinates>120.8271553,24.0240199,0</coordinates></Point></Placemark><Placemark><name>霧峰林家大花廳</name><description>No. 28號, Minsheng Rd, Wufeng District, Taichung City, Taiwan 413</description><Point><coordinates>120.700869,24.063066,0</coordinates></Point></Placemark><Placemark><name>霧峰林家頤圃</name><description>No. 38號, Minsheng Rd, Wufeng District, Taichung City, Taiwan 413</description><Point><coordinates>120.7008116,24.0637661,0</coordinates></Point></Placemark><Placemark><name>霧峰林家萊園</name><description>No. 91號, Laiyuan Rd, Wufeng District, Taichung City, Taiwan 413</description><Point><coordinates>120.7031104,24.0612114,0</coordinates></Point></Placemark></Folder></Document></kml>